{
  "type": "FeatureCollection",
  "features": [
    {
      "type": "Feature",
      "properties": { "name": "India" },
      "geometry": {
        "type": "Polygon",
        "coordinates": [[
          [68.1, 23.6], [69.5, 22.0], [72.0, 20.5], [72.8, 18.9], [73.5, 15.5],
          [74.0, 12.5], [76.0, 10.0], [77.5, 8.1], [80.2, 9.5], [80.3, 13.0],
          [82.0, 16.5], [84.0, 19.5], [86.5, 21.5], [88.5, 22.0], [89.0, 24.5],
          [91.0, 26.0], [93.5, 24.5], [95.0, 27.0], [97.0, 28.0], [94.0, 29.0],
          [88.0, 27.5], [85.0, 28.0], [80.0, 30.5], [78.0, 32.5], [75.0, 34.0],
          [73.0, 34.0], [72.0, 30.0], [70.0, 26.0], [68.1, 23.6]
        ]]
      }
    }
  ]
}
